CZ-2C DEB               
1 55692U 23025C   23077.12539448  .00099817  00000+0  43779-2 0  9999
2 55692  97.6494 151.1678 0086641 153.3113 207.2143 15.18185901  3336
CZ-2C DEB               
1 55693U 23025D   23077.20835093  .00115462  00000+0  49491-2 0  9996
2 55693  97.2430 150.1900 0086816 153.1103 291.7934 15.18876012  3326
2023-025E               
1 55694U 23025E   23076.93831669  .00047860  00000+0  40473-2 0  9998
2 55694  97.2712 149.1139 0156841  94.7770 267.1272 14.88761312  3243
STARLINK-30050          
1 55695U 23026A   23076.91667824  .00081493  00000+0  83463-3 0  9995
2 55695  43.0014 176.2925 0002316 339.4972 115.3945 15.64017465  1306
STARLINK-30038          
1 55696U 23026B   23076.91667824 -.00161550  00000+0 -14423-2 0  9990
2 55696  43.0036 176.1786 0001449 273.8124 224.8143 15.67971434  1305
STARLINK-30040          
1 55697U 23026C   23077.25001157  .00137993  00000+0  14013-2 0  9997
2 55697  42.9994 174.2909 0001949 326.6303 211.8116 15.64005856  3899
STARLINK-30061          
1 55698U 23026D   23076.91667824  .00052568  00000+0  54584-3 0  9991
2 55698  43.0011 176.2804 0002513 335.0146 124.8399 15.63828197  1305
STARLINK-30055          
1 55699U 23026E   23076.91667824  .00087592  00000+0  90127-3 0  9990
2 55699  43.0013 176.2441 0002361 311.3986 163.7141 15.63872190  1304
STARLINK-30064          
1 55700U 23026F   23076.91667824  .00051350  00000+0  54058-3 0  9999
2 55700  43.0018 176.2570 0002195 320.3522 149.6735 15.63487829  1309
STARLINK-30065          
1 55701U 23026G   23077.25001157  .00139733  00000+0  14202-2 0  9997
2 55701  43.0010 174.2454 0001883 327.5791 230.3540 15.63977682  3890
STARLINK-30042          
1 55702U 23026H   23077.25001157  .00133430  00000+0  13806-2 0  9995
2 55702  43.0015 174.2632 0002073 318.8925 232.2243 15.63547289  3895
STARLINK-30044          
1 55703U 23026J   23077.25001157  .00139717  00000+0  14183-2 0  9999
2 55703  43.0014 174.2362 0002465 305.7681 256.3749 15.64007846  3893
STARLINK-30051          
1 55704U 23026K   23077.25001157  .00137568  00000+0  14124-2 0  9997
2 55704  43.0014 174.2456 0001596 322.4051 235.9192 15.63729667  3895
STARLINK-30057          
1 55705U 23026L   23077.16667824  .00138123  00000+0  14096-2 0  9993
2 55705  43.0005 174.7308 0001485 288.3480 164.6295 15.63880217  3880
STARLINK-30054          
1 55706U 23026M   23076.91667824  .00053210  00000+0  54601-3 0  9996
2 55706  43.0013 176.1965 0002209 341.3028 153.4157 15.64124169  1304
STARLINK-30060          
1 55707U 23026N   23076.91667824  .00080491  00000+0  83396-3 0  9991
2 55707  43.0015 176.2188 0001599 313.0327 172.7436 15.63730381  1306
STARLINK-30058          
1 55708U 23026P   23077.25001157 -.00045863  00000+0 -40290-3 0  9993
2 55708  43.0022 174.1132 0001949 247.7602   5.8537 15.67858351  3895
STARLINK-30047          
1 55709U 23026Q   23077.25001157  .00134300  00000+0  13764-2 0  9992
2 55709  43.0013 174.2208 0001504 336.8561 231.7614 15.63787031  3890
STARLINK-30046          
1 55710U 23026R   23077.25001157  .00145867  00000+0  14273-2 0  9990
2 55710  43.0007 174.1819 0002546 351.1302 233.2650 15.64912178  3892
STARLINK-30048          
1 55711U 23026S   23077.16667824  .00148860  00000+0  14633-2 0  9996
2 55711  43.0009 174.6745 0003272   5.4165 110.7378 15.64783993  3887
STARLINK-30037          
1 55712U 23026T   23077.16667824  .00139348  00000+0  14198-2 0  9994
2 55712  43.0008 174.6980 0002319   2.8104 103.9014 15.63915745  3885
STARLINK-30063          
1 55713U 23026U   23077.16667824  .00136319  00000+0  14055-2 0  9992
2 55713  43.0010 174.7037 0001713 315.5840 148.9252 15.63626994  3889
STARLINK-30059          
1 55714U 23026V   23076.91667824  .00079855  00000+0  82995-3 0  9995
2 55714  43.0012 176.1978 0002134 329.4939 164.8818 15.63653387  1309
STARLINK-30062          
1 55715U 23026W   23076.91667824  .00047544  00000+0  49536-3 0  9990
2 55715  43.0032 176.1348 0002669 342.8185 180.9753 15.63777541  1304
CREW DRAGON 6           
1 55740U 23027A   23076.46214245  .00020748  00000+0  38053-3 0  9993
2 55740  51.6407  62.9479 0006088 101.0634  39.9442 15.49228809387568
STARLINK-5592           
1 55741U 23028A   23076.91667824 -.00896935  00000+0 -61527-2 0  9992
2 55741  70.0002 115.4673 0003637 274.3745 136.5991 15.76849127  1309
STARLINK-5594           
1 55742U 23028B   23076.91667824 -.00896170  00000+0 -61521-2 0  9998
2 55742  70.0002 115.4683 0003710 281.0892 128.9417 15.76829155  2893
STARLINK-5602           
1 55743U 23028C   23076.91667824 -.00898305  00000+0 -61705-2 0  9995
2 55743  70.0002 115.4691 0003702 278.8049 130.7465 15.76821344  2898
STARLINK-5601           
1 55744U 23028D   23076.91667824 -.00897580  00000+0 -61601-2 0  9995
2 55744  70.0002 115.4678 0003704 279.5965 130.9138 15.76839140  2893
STARLINK-5565           
1 55745U 23028E   23077.16667824 -.01007320  00000+0 -71422-2 0  9992
2 55745  69.9992 114.7590 0003655 270.6925 116.8254 15.76404726  2932
STARLINK-5579           
1 55746U 23028F   23076.91667824 -.00896101  00000+0 -61304-2 0  9995
2 55746  70.0002 115.4639 0003638 276.8326 136.9611 15.76907553  1300
STARLINK-5539           
1 55747U 23028G   23076.91667824 -.00898962  00000+0 -61625-2 0  9999
2 55747  70.0001 115.4662 0003615 271.6129 140.3015 15.76869806  1300
STARLINK-5580           
1 55748U 23028H   23076.91667824 -.00896304  00000+0 -61398-2 0  9995
2 55748  70.0002 115.4655 0003641 276.0545 136.3228 15.76878727  2892
STARLINK-5560           
1 55749U 23028J   23076.91667824 -.00898844  00000+0 -61480-2 0  9999
2 55749  70.0000 115.4634 0003611 270.3327 143.9218 15.76919473  1302
STARLINK-5573           
1 55750U 23028K   23077.25001157 -.00861783  00000+0 -60570-2 0  9991
2 55750  70.0001 114.5183 0003411 271.1110 233.0545 15.76209963  2942
STARLINK-5577           
1 55751U 23028L   23076.91667824 -.00896277  00000+0 -61450-2 0  9997
2 55751  70.0002 115.4667 0003661 277.7226 133.7187 15.76858721  2892
STARLINK-5613           
1 55752U 23028M   23076.91667824 -.00896268  00000+0 -61129-2 0  9991
2 55752  70.0001 115.4599 0003646 277.0454 140.0320 15.76976229  1304
STARLINK-5617           
1 55753U 23028N   23076.91667824 -.00896223  00000+0 -61340-2 0  9998
2 55753  70.0002 115.4644 0003648 276.8119 136.5145 15.76897607  2896
STARLINK-5612           
1 55754U 23028P   23076.91667824 -.00898347  00000+0 -61361-2 0  9991
2 55754  70.0001 115.4616 0003710 280.1197 135.5538 15.76947942  1307
STARLINK-5619           
1 55755U 23028Q   23077.25001157 -.00856438  00000+0 -60061-2 0  9992
2 55755  70.0000 114.5161 0003450 277.9153 228.1776 15.76245253  2949
STARLINK-5614           
1 55756U 23028R   23076.91667824 -.00896380  00000+0 -61052-2 0  9995
2 55756  70.0002 115.4583 0003672 279.9493 138.5122 15.77007294  1305
STARLINK-5544           
1 55757U 23028S   23076.91667824 -.00898836  00000+0 -61429-2 0  9992
2 55757  70.0000 115.4622 0003615 268.4462 146.7627 15.76937846  2894
STARLINK-5072           
1 55758U 23028T   23076.91667824 -.00915408  00000+0 -62566-2 0  9991
2 55758  69.9996 115.4599 0003672 278.2087 138.3906 15.76979869  2892
STARLINK-5081           
1 55759U 23028U   23077.25001157 -.00017583  00000+0 -99193-4 0  9996
2 55759  69.9932 114.5005 0002796 273.4082 238.4209 15.78660694  2942
STARLINK-5532           
1 55760U 23028V   23076.91667824 -.00898927  00000+0 -61271-2 0  9992
2 55760  70.0002 115.4586 0003605 269.3789 148.6213 15.76998283  1309
STARLINK-5611           
1 55761U 23028W   23077.25001157 -.00906524  00000+0 -63598-2 0  9999
2 55761  70.0001 114.5113 0003416 270.9268 239.4457 15.76371789  2941
STARLINK-5603           
1 55762U 23028X   23076.91667824 -.00896775  00000+0 -60952-2 0  9998
2 55762  70.0001 115.4555 0003637 276.7798 144.0327 15.77055444  2898
STARLINK-5593           
1 55763U 23028Y   23076.91667824 -.00896287  00000+0 -61102-2 0  9995
2 55763  70.0002 115.4594 0003649 277.9851 139.5531 15.76986642  2897
STARLINK-5499           
1 55764U 23028Z   23076.91667824 -.00898771  00000+0 -61127-2 0  9993
2 55764  70.0001 115.4560 0003605 269.9121 150.4320 15.77046739  1301
STARLINK-5595           
1 55765U 23028AA  23076.91667824 -.00896304  00000+0 -60967-2 0  9995
2 55765  70.0002 115.4566 0003677 280.2400 139.6282 15.77036361  2884
STARLINK-5599           
1 55766U 23028AB  23076.91667824 -.00896980  00000+0 -60860-2 0  9998
2 55766  70.0001 115.4532 0003647 277.5755 145.1029 15.77094839  2881
STARLINK-5606           
1 55767U 23028AC  23076.91667824 -.00896370  00000+0 -61000-2 0  9999
2 55767  70.0002 115.4572 0003661 279.1338 140.2712 15.77026267  2883
STARLINK-5583           
1 55768U 23028AD  23076.91667824 -.00897002  00000+0 -60941-2 0  9996
2 55768  70.0001 115.4548 0003637 276.4564 144.8184 15.77065749  2881
STARLINK-5584           
1 55769U 23028AE  23077.25001157 -.00870617  00000+0 -60732-2 0  9997
2 55769  70.0001 114.5075 0003407 272.7736 240.4980 15.76403782  2937
STARLINK-5557           
1 55770U 23028AF  23077.25001157 -.00905570  00000+0 -63335-2 0  9998
2 55770  70.0000 114.5071 0003431 274.7697 238.9667 15.76438739  2933
STARLINK-5591           
1 55771U 23028AG  23076.91667824 -.00896350  00000+0 -60760-2 0  9994
2 55771  70.0002 115.4522 0003648 278.7786 144.8299 15.77114256  2897
STARLINK-5835           
1 55772U 23028AH  23076.91667824 -.00896604  00000+0 -60670-2 0  9997
2 55772  70.0002 115.4499 0003727 283.1401 142.3331 15.77153453  2895
STARLINK-5833           
1 55773U 23028AJ  23077.25001157 -.00852298  00000+0 -59283-2 0  9996
2 55773  70.0001 114.5060 0003391 271.3048 243.4053 15.76419946  2943
STARLINK-5812           
1 55774U 23028AK  23077.25001157 -.00855042  00000+0 -59438-2 0  9999
2 55774  70.0001 114.5046 0003398 270.4178 245.2553 15.76440823  2942
